O3B FM5                 
1 39188U 13031A   23027.75443836 -.00000022  00000+0  00000+0 0  9994
2 39188   0.0657   0.4931 0002899 311.2225  48.2536  5.00115394175188
O3B FM4                 
1 39189U 13031B   23027.81032998 -.00000022  00000+0  00000+0 0  9995
2 39189   0.0379 358.5948 0002844 313.1035  48.2714  5.00115915175193
O3B FM2                 
1 39190U 13031C   23027.30223188 -.00000021  00000+0  00000+0 0  9993
2 39190   0.0331 356.1866 0002810 313.2212  50.5613  5.00115165175233
O3B PFM                 
1 39191U 13031D   23027.32839163 -.00000022  00000+0  00000+0 0  9993
2 39191   0.0567   1.6162 0002733 304.2612  54.0913  5.00115886174796
O3B FM3                 
1 40079U 14038A   23026.78344793 -.00000021  00000+0  00000+0 0  9996
2 40079   0.0456 358.6673 0003946 270.3858  90.8956  5.00116657151140
O3B FM7                 
1 40080U 14038B   23027.72909417 -.00000022  00000+0  00000+0 0  9994
2 40080   0.0432 353.8448 0003321 346.2087  19.9276  5.00115611156025
O3B FM6                 
1 40081U 14038C   23027.75551285 -.00000022  00000+0  00000+0 0  9994
2 40081   0.0449 359.5713 0002809 307.3400  53.0570  5.00115312155976
O3B FM8                 
1 40082U 14038D   23027.80934116 -.00000022  00000+0  00000+0 0  9999
2 40082   0.0418   0.6928 0002639 305.3477  53.9291  5.00115734156088
O3B FM10                
1 40348U 14083A   23027.63564846 -.00000022  00000+0  00000+0 0  9994
2 40348   0.0526   5.0128 0002711 301.8417  53.1147  5.00115182148035
O3B FM11                
1 40349U 14083B   23026.24981082 -.00000021  00000+0  00000+0 0  9995
2 40349   0.0539   0.1256 0003171 316.5622  43.2811  5.00115396147988
O3B FM12                
1 40350U 14083C   23027.47639222 -.00000022  00000+0  00000+0 0  9990
2 40350   0.0530   0.3786 0002933 307.2571  52.3317  5.00115308148050
O3B FM9                 
1 40351U 14083D   23027.30317024 -.00000021  00000+0  00000+0 0  9995
2 40351   0.0546 359.0279 0002751 309.3492  51.5922  5.00116118148190
DIAMOND RED             
1 42783U 17036U   23028.04342164  .00019680  00000+0  62437-3 0  9998
2 42783  97.1732  66.3942 0007656 244.2789 115.7663 15.32689988311277
DIAMOND GREEN           
1 42785U 17036W   23027.64430775  .00020573  00000+0  64783-3 0  9990
2 42785  97.1730  66.0913 0007445 246.6329 113.4131 15.32922234311284
DIAMOND BLUE            
1 42786U 17036X   23028.10320027  .00019986  00000+0  63076-3 0  9991
2 42786  97.1732  66.5234 0007475 245.8689 114.1772 15.32855120311278
LEO VANTAGE 1           
1 43113U 18004C   23028.25463359  .00005560  00000+0  44404-3 0  9991
2 43113  99.2406 137.4264 0396375 235.4121 120.9085 14.55069292256913
O3B FM15                
1 43231U 18024A   23027.76888194 -.00000022  00000+0  00000+0 0  9996
2 43231   0.0523   8.7193 0003058 296.9868  54.2596  5.00116329 89170
O3B FM16                
1 43232U 18024B   23027.82232120 -.00000022  00000+0  00000+0 0  9996
2 43232   0.0533  13.0641 0003068 293.8662  53.0357  5.00116052 89083
O3B FM14                
1 43233U 18024C   23027.46233036 -.00000022  00000+0  00000+0 0  9994
2 43233   0.0530  14.7798 0003048 295.2808  49.9068  5.00115493 89089
O3B FM13                
1 43234U 18024D   23026.91621026 -.00000021  00000+0  00000+0 0  9993
2 43234   0.0679 358.2305 0003860 303.9969  57.7292  5.00114786 89171
O3B FM20                
1 44112U 19020A   23027.68890446 -.00000022  00000+0  00000+0 0  9996
2 44112   0.0519   5.0191 0003420 303.6184  51.3260  5.00115525 69713
O3B FM19                
1 44113U 19020B   23026.31654725 -.00000021  00000+0  00000+0 0  9993
2 44113   0.0725   9.7637 0002886 321.9729  28.2416  5.00115089 69511
O3B FM17                
1 44114U 19020C   23027.79616878 -.00000022  00000+0  00000+0 0  9995
2 44114   0.0377  23.0688 0003162 282.5368  54.3591  5.00115716 69677
O3B FM18                
1 44115U 19020D   23028.14242634 -.00000022  00000+0  00000+0 0  9991
2 44115   0.0523   4.7021 0002945 301.4864  53.7784  5.00115878 69809
SALSAT                  
1 46495U 20068K   23027.81242785  .00005079  00000+0  35279-3 0  9994
2 46495  97.7541 334.6539 0014715 233.2217 126.7660 15.05921928127936
